NORAD_CAT_ID,OBJECT_NAME,OBJECT_TYPE,EPOCH,MEAN_MOTION,ECCENTRICITY,INCLINATION,RA_OF_ASC_NODE,ARG_OF_PERICENTER,MEAN_ANOMALY,BSTAR,MEAN_MOTION_DOT,MEAN_MOTION_DDOT,TLE_LINE0,TLE_LINE1,TLE_LINE2,SEMIMAJOR_AXIS,PERIOD,APOGEE,PERIGEE,DECAYED
52382.0,STARLINK-3799,PAYLOAD,2023-10-03 06:03:13,15.08850519,0.0001681,53.2168,217.4811,106.326,253.7917,0.00026381,3.914e-05,0.0,0 STARLINK-3799,1 52382U 22045BD  23276.25224479  .00003914  00000-0  26381-3 0  9998,2 52382  53.2168 217.4811 0001681 106.3260 253.7917 15.08850519 81808,6917.848,95.437,540.876,538.55,0.0
52382.0,STARLINK-3799,PAYLOAD,2023-10-03 23:32:29,15.08835859,0.0001472,53.2157,214.2117,110.6509,249.4641,-9.1651e-07,-3.03e-06,0.0,0 STARLINK-3799,1 52382U 22045BD  23276.98089185 -.00000303  00000-0 -91651-6 0  9997,2 52382  53.2157 214.2117 0001472 110.6509 249.4641 15.08835859 81910,6917.893,95.438,540.776,538.74,0.0
52382.0,STARLINK-3799,PAYLOAD,2023-10-04 12:15:34,15.0884434,0.0001557,53.2152,211.8305,107.864,252.2522,0.00030565,4.58e-05,0.0,0 STARLINK-3799,1 52382U 22045BD  23277.51081083  .00004580  00000-0  30565-3 0  9999,2 52382  53.2152 211.8305 0001557 107.8640 252.2522 15.08844340 81998,6917.867,95.437,540.809,538.655,0.0
52382.0,STARLINK-3799,PAYLOAD,2023-10-05 12:06:20,15.08855384,0.0001103,53.215,207.373,86.8747,273.2371,0.00070989,0.00011033,0.0,0 STARLINK-3799,1 52382U 22045BD  23278.50440654  .00011033  00000-0  70989-3 0  9997,2 52382  53.2150 207.3730 0001103  86.8747 273.2371 15.08855384 82142,6917.833,95.437,540.461,538.935,0.0
52382.0,STARLINK-3799,PAYLOAD,2023-10-06 04:00:12,15.08852365,0.0001591,53.2152,204.3972,91.8058,268.3116,0.00026564,3.944e-05,0.0,0 STARLINK-3799,1 52382U 22045BD  23279.16680608  .00003944  00000-0  26564-3 0  9997,2 52382  53.2152 204.3972 0001591  91.8058 268.3116 15.08852365 82240,6917.843,95.437,540.808,538.607,0.0
52382.0,STARLINK-3799,PAYLOAD,2023-10-06 11:57:08,15.08835095,0.0001758,53.2157,202.9153,98.0312,262.0879,-1.7438e-05,-5.66e-06,0.0,0 STARLINK-3799,1 52382U 22045BD  23279.49801351 -.00000566  00000-0 -17438-4 0  9993,2 52382  53.2157 202.9153 0001758  98.0312 262.0879 15.08835095 82290,6917.895,95.438,540.977,538.544,0.0
52382.0,STARLINK-3799,PAYLOAD,2023-10-07 03:50:59,15.0884871,0.0001596,53.2153,199.9398,111.2242,248.8921,0.00028783,4.297e-05,0.0,0 STARLINK-3799,1 52382U 22045BD  23280.16040840  .00004297  00000-0  28783-3 0  9994,2 52382  53.2153 199.9398 0001596 111.2242 248.8921 15.08848710 82391,6917.854,95.437,540.823,538.615,0.0
52382.0,STARLINK-3799,PAYLOAD,2023-10-07 11:47:55,15.08842251,0.0001587,53.2153,198.4515,88.3407,271.7766,0.00012756,1.743e-05,0.0,0 STARLINK-3799,1 52382U 22045BD  23280.49161180  .00001743  00000-0  12756-3 0  9997,2 52382  53.2153 198.4515 0001587  88.3407 271.7766 15.08842251 82445,6917.874,95.437,540.836,538.641,0.0
52382.0,STARLINK-3799,PAYLOAD,2023-10-08 11:38:42,15.08837409,0.0001676,53.2155,193.9913,91.7345,268.3839,8.1954e-05,1.016e-05,0.0,0 STARLINK-3799,1 52382U 22045BD  23281.48521705  .00001016  00000-0  81954-4 0  9990,2 52382  53.2155 193.9913 0001676  91.7345 268.3839 15.08837409 82595,6917.888,95.438,540.913,538.594,0.0
52382.0,STARLINK-3799,PAYLOAD,2023-10-09 00:21:47,15.08854883,0.0001655,53.2156,191.6123,103.6162,256.5014,0.00030024,4.495e-05,0.0,0 STARLINK-3799,1 52382U 22045BD  23282.01512905  .00004495  00000-0  30024-3 0  9997,2 52382  53.2156 191.6123 0001655 103.6162 256.5014 15.08854883 82679,6917.835,95.437,540.845,538.555,0.0
52382.0,STARLINK-3799,PAYLOAD,2023-10-09 11:29:29,15.08842993,0.0001431,53.2154,189.5308,85.8622,274.2534,9.6845e-05,1.254e-05,0.0,0 STARLINK-3799,1 52382U 22045BD  23282.47881335  .00001254  00000-0  96845-4 0  9997,2 52382  53.2154 189.5308 0001431  85.8622 274.2534 15.08842993 82743,6917.871,95.437,540.726,538.746,0.0
52382.0,STARLINK-3799,PAYLOAD,2023-10-10 00:12:35,15.0883613,0.0001732,53.2164,187.1513,83.849,276.2699,-4.7054e-05,-1.037e-05,0.0,0 STARLINK-3799,1 52382U 22045BD  23283.00873887 -.00001037  00000-0 -47054-4 0  9999,2 52382  53.2164 187.1513 0001732  83.8490 276.2699 15.08836130 82820,6917.892,95.438,540.955,538.559,0.0
52382.0,STARLINK-3799,PAYLOAD,2023-10-10 11:20:17,15.08836567,0.0001931,53.2156,185.0688,92.1055,268.0158,4.9578e-05,5.01e-06,0.0,0 STARLINK-3799,1 52382U 22045BD  23283.47242105  .00000501  00000-0  49578-4 0  9999,2 52382  53.2156 185.0688 0001931  92.1055 268.0158 15.08836567 82892,6917.891,95.438,541.092,538.42,0.0
52382.0,STARLINK-3799,PAYLOAD,2023-10-10 20:52:35,15.08838246,0.0001362,53.2137,183.2846,95.2462,264.8686,9.1635e-05,1.171e-05,0.0,0 STARLINK-3799,1 52382U 22045BD  23283.86985860  .00001171  00000-0  91635-4 0  9999,2 52382  53.2137 183.2846 0001362  95.2462 264.8686 15.08838246 82954,6917.886,95.438,540.693,538.809,0.0
52382.0,STARLINK-3799,PAYLOAD,2023-10-11 00:03:21,15.08846602,0.0001533,53.2172,182.6916,86.4779,273.6388,0.00019631,2.838e-05,0.0,0 STARLINK-3799,1 52382U 22045BD  23284.00233779  .00002838  00000-0  19631-3 0  9997,2 52382  53.2172 182.6916 0001533  86.4779 273.6388 15.08846602 82971,6917.86,95.437,540.786,538.665,0.0
52382.0,STARLINK-3799,PAYLOAD,2023-10-11 03:14:07,15.08857415,0.0001341,53.2156,182.0965,88.7512,271.3634,0.00042689,6.516e-05,0.0,0 STARLINK-3799,1 52382U 22045BD  23284.13481224  .00006516  00000-0  42689-3 0  9997,2 52382  53.2156 182.0965 0001341  88.7512 271.3634 15.08857415 82993,6917.827,95.436,540.62,538.764,0.0
52382.0,STARLINK-3799,PAYLOAD,2023-10-11 20:43:23,15.08833389,0.0001411,53.216,178.8224,89.2592,270.8562,9.1597e-05,1.17e-05,0.0,0 STARLINK-3799,1 52382U 22045BD  23284.86346502  .00001170  00000-0  91597-4 0  9990,2 52382  53.2160 178.8224 0001411  89.2592 270.8562 15.08833389 83103,6917.901,95.438,540.742,538.789,0.0
52382.0,STARLINK-3799,PAYLOAD,2023-10-12 03:04:55,15.08854399,0.0001386,53.2163,177.6364,98.9078,261.2072,0.00051048,7.849e-05,0.0,0 STARLINK-3799,1 52382U 22045BD  23285.12841854  .00007849  00000-0  51048-3 0  9995,2 52382  53.2163 177.6364 0001386  98.9078 261.2072 15.08854399 83143,6917.836,95.437,540.66,538.743,0.0
52382.0,STARLINK-3799,PAYLOAD,2023-10-12 09:26:28,15.08841409,0.0001409,53.2162,176.4471,92.8449,267.2704,0.00024888,3.675e-05,0.0,0 STARLINK-3799,1 52382U 22045BD  23285.39338211  .00003675  00000-0  24888-3 0  9997,2 52382  53.2162 176.4471 0001409  92.8449 267.2704 15.08841409 83189,6917.876,95.437,540.716,538.766,0.0
52382.0,STARLINK-3799,PAYLOAD,2023-10-12 20:34:10,15.0884216,0.0001475,53.2168,174.3665,104.5043,255.6113,0.00025639,3.795e-05,0.0,0 STARLINK-3799,1 52382U 22045BD  23285.85706389  .00003795  00000-0  25639-3 0  9991,2 52382  53.2168 174.3665 0001475 104.5043 255.6113 15.08842160 83259,6917.874,95.437,540.759,538.718,0.0
52382.0,STARLINK-3799,PAYLOAD,2023-10-12 22:09:33,15.08843596,0.0001464,53.2167,174.0692,103.5333,256.5822,0.00034681,5.236e-05,0.0,0 STARLINK-3799,1 52382U 22045BD  23285.92330344  .00005236  00000-0  34681-3 0  9992,2 52382  53.2167 174.0692 0001464 103.5333 256.5822 15.08843596 83266,6917.869,95.437,540.747,538.722,0.0
52382.0,STARLINK-3799,PAYLOAD,2023-10-13 09:17:15,15.08848303,0.0001267,53.2161,171.9886,99.3715,260.742,0.0004185,6.38e-05,0.0,0 STARLINK-3799,1 52382U 22045BD  23286.38698152  .00006380  00000-0  41850-3 0  9994,2 52382  53.2161 171.9886 0001267  99.3715 260.7420 15.08848303 83338,6917.855,95.437,540.597,538.844,0.0
52382.0,STARLINK-3799,PAYLOAD,2023-10-13 22:00:20,15.08846095,0.0001364,53.2161,169.6103,102.4824,257.6321,0.0001679,2.386e-05,0.0,0 STARLINK-3799,1 52382U 22045BD  23286.91690085  .00002386  00000-0  16790-3 0  9997,2 52382  53.2161 169.6103 0001364 102.4824 257.6321 15.08846095 83419,6917.862,95.437,540.67,538.783,0.0
52382.0,STARLINK-3799,PAYLOAD,2023-10-14 09:08:02,15.08842184,0.0001263,53.2159,167.5271,91.5057,268.608,5.3514e-05,5.64e-06,0.0,0 STARLINK-3799,1 52382U 22045BD  23287.38058123  .00000564  00000-0  53514-4 0  9992,2 52382  53.2159 167.5271 0001263  91.5057 268.6080 15.08842184 83489,6917.874,95.437,540.612,538.865,0.0
52382.0,STARLINK-3799,PAYLOAD,2023-10-14 20:15:45,15.08827661,0.0002201,53.216,165.4455,90.0476,270.0769,-0.00010678,-1.987e-05,0.0,0 STARLINK-3799,1 52382U 22045BD  23287.84427204 -.00001987  00000-0 -10678-3 0  9998,2 52382  53.2160 165.4455 0002201  90.0476 270.0769 15.08827661 83556,6917.918,95.438,541.306,538.26,0.0
52382.0,STARLINK-3799,PAYLOAD,2023-10-14 21:51:08,15.08829851,0.000148,53.2151,165.1467,87.2842,272.8319,-0.00016272,-2.876e-05,0.0,0 STARLINK-3799,1 52382U 22045BD  23287.91051211 -.00002876  00000-0 -16272-3 0  9991,2 52382  53.2151 165.1467 0001480  87.2842 272.8319 15.08829851 83564,6917.911,95.438,540.8,538.753,0.0
52382.0,STARLINK-3799,PAYLOAD,2023-10-15 08:58:50,15.08838991,0.000157,53.2163,163.0666,87.963,272.1542,8.2655e-05,1.028e-05,0.0,0 STARLINK-3799,1 52382U 22045BD  23288.37419010  .00001028  00000-0  82655-4 0  9992,2 52382  53.2163 163.0666 0001570  87.9630 272.1542 15.08838991 83631,6917.883,95.438,540.835,538.662,0.0
52382.0,STARLINK-3799,PAYLOAD,2023-10-15 21:41:55,15.08846814,0.0001614,53.2156,160.6878,92.9054,267.2122,0.00030652,4.595e-05,0.0,0 STARLINK-3799,1 52382U 22045BD  23288.90410885  .00004595  00000-0  30652-3 0  9993,2 52382  53.2156 160.6878 0001614  92.9054 267.2122 15.08846814 83717,6917.86,95.437,540.841,538.608,0.0
52382.0,STARLINK-3799,PAYLOAD,2023-10-16 00:52:41,15.08852682,0.0001642,53.2152,160.0925,88.0351,272.0829,0.0007883,0.00012284,0.0,0 STARLINK-3799,1 52382U 22045BD  23289.03658997  .00012284  00000-0  78830-3 0  9990,2 52382  53.2152 160.0925 0001642  88.0351 272.0829 15.08852682 83737,6917.842,95.437,540.843,538.571,0.0
52382.0,STARLINK-3799,PAYLOAD,2023-10-16 08:49:36,15.08848487,0.0001459,53.2151,158.6031,106.5192,253.596,0.00034579,5.221e-05,0.0,0 STARLINK-3799,1 52382U 22045BD  23289.36778800  .00005221  00000-0  34579-3 0  9997,2 52382  53.2151 158.6031 0001459 106.5192 253.5960 15.08848487 83785,6917.854,95.437,540.729,538.71,0.0
